GSAT0206 (GALILEO 10)   
1 40890U 15045B   26115.66468946 -.00000038  00000+0  00000+0 0  9990
2 40890  54.9612 223.0540 0002188  38.1287 321.8788  1.70473961 66146
BEIDOU-3S IGSO-2S (C56) 
1 40938U 15053A   26115.85927830 -.00000170  00000+0  00000+0 0  9992
2 40938  49.3057 259.4015 0063664 190.0168 170.5978  1.00271571 38833
GPS BIIF-11 (PRN 10)    
1 41019U 15062A   26114.92947431 -.00000091  00000+0  00000+0 0  9991
2 41019  56.9258  32.8632 0111251 231.5279 127.4763  2.00566987 76765
GSAT-15 (GAGAN/PRN 139) 
1 41028U 15065A   26116.51252659 -.00000270  00000+0  00000+0 0  9991
2 41028   0.0693 257.2086 0003715 144.1307  91.1948  1.00272058 38289
GSAT0209 (GALILEO 12)   
1 41174U 15079A   26115.24610591  .00000046  00000+0  00000+0 0  9990
2 41174  55.7962 102.7123 0005679 329.0159  30.9454  1.70474059 63871
GSAT0208 (GALILEO 11)   
1 41175U 15079B   26116.05295675  .00000046  00000+0  00000+0 0  9993
2 41175  55.7944 102.6873 0005050 330.1145  29.8515  1.70473954 64301
IRNSS-1E                
1 41241U 16003A   26111.89127155 -.00000302  00000+0  00000+0 0  9995
2 41241  33.1155  60.5610 0017245 183.4571  38.5260  1.00277854 37512
GPS BIIF-12 (PRN 32)    
1 41328U 16007A   26115.01720695  .00000037  00000+0  00000+0 0  9995
2 41328  55.4917  91.5661 0096117 247.0721 111.9007  2.00554180 74775
COSMOS 2514 (751)       
1 41330U 16008A   26116.19734976 -.00000026  00000+0  00000+0 0  9995
2 41330  65.0524 314.7909 0009488 198.1735 161.8195  2.13102638 79510
BEIDOU-2 IGSO-6 (C13)   
1 41434U 16021A   26112.85559397 -.00000169  00000+0  00000+0 0  9994
2 41434  60.1522  38.5901 0055866 232.0601 343.5038  1.00270364 36923
IRNSS-1G                
1 41469U 16027A   26116.38740302 -.00000341  00000+0  00000+0 0  9990
2 41469   5.0685  98.6907 0005884 345.4500  39.3280  1.00275971 36663
GSAT0211 (GALILEO 14)   
1 41549U 16030A   26114.41727357 -.00000030  00000+0  00000+0 0  9995
2 41549  55.1119 223.1731 0002524 359.1559   0.8397  1.70474087 61750
GSAT0210 (GALILEO 13)   
1 41550U 16030B   26115.26112393 -.00000036  00000+0  00000+0 0  9995
2 41550  55.1104 223.1480 0002810 225.6811 134.2889  1.70474037 61767
BEIDOU-2 G7 (C03)       
1 41586U 16037A   26116.51814872 -.00000363  00000+0  00000+0 0  9994
2 41586   1.5942  68.8082 0007692 354.3547  88.3279  1.00265380  6372
EUTELSAT 117 WEST B (W*)
1 41589U 16038B   26116.49697553 -.00000024  00000+0  00000+0 0  9994
2 41589   0.0103  98.0518 0000144  53.8454 124.5217  1.00270405 36147
GSAT0207 (GALILEO 15)   
1 41859U 16069A   26113.19301128  .00000042  00000+0  00000+0 0  9991
2 41859  55.4647 102.6061 0005905 316.7510  43.1935  1.70473937 58467
GSAT0212 (GALILEO 16)   
1 41860U 16069B   26115.97942787  .00000045  00000+0  00000+0 0  9996
2 41860  55.4638 102.5243 0004657 340.7517  19.2254  1.70474171 58769
